[
  {
    "CCSDS_OMM_VERS": "3.0",
    "COMMENT": "GENERATED VIA SPACE-TRACK.ORG API",
    "CREATION_DATE": "2025-11-26T23:26:32",
    "ORIGINATOR": "18 SPCS",
    "OBJECT_NAME": "IRIDIUM 33 DEB",
    "OBJECT_ID": "1997-051Q",
    "CENTER_NAME": "EARTH",
    "REF_FRAME": "TEME",
    "TIME_SYSTEM": "UTC",
    "MEAN_ELEMENT_THEORY": "SGP4",
    "EPOCH": "2025-11-26T16:15:39.280608",
    "MEAN_MOTION": "14.55428198",
    "ECCENTRICITY": "0.00055810",
    "INCLINATION": "86.3795",
    "RA_OF_ASC_NODE": "42.1870",
    "ARG_OF_PERICENTER": "322.2417",
    "MEAN_ANOMALY": "37.8399",
    "EPHEMERIS_TYPE": "0",
    "CLASSIFICATION_TYPE": "U",
    "NORAD_CAT_ID": "33777",
    "ELEMENT_SET_NO": "999",
    "REV_AT_EPOCH": "88300",
    "BSTAR": "0.00116630000000",
    "MEAN_MOTION_DOT": "0.00005088",
    "MEAN_MOTION_DDOT": "0.0000000000000",
    "SEMIMAJOR_AXIS": "7086.112",
    "PERIOD": "98.940",
    "APOAPSIS": "711.931",
    "PERIAPSIS": "704.022",
    "OBJECT_TYPE": "DEBRIS",
    "RCS_SIZE": "MEDIUM",
    "COUNTRY_CODE": "US",
    "LAUNCH_DATE": "1997-09-14",
    "SITE": "TTMTR",
    "DECAY_DATE": null,
    "FILE": "4903528",
    "GP_ID": "303675549",
    "TLE_LINE0": "0 IRIDIUM 33 DEB",
    "TLE_LINE1": "1 33777U 97051Q   25330.67753797  .00005088  00000-0  11663-2 0  9993",
    "TLE_LINE2": "2 33777  86.3795  42.1870 0005581 322.2417  37.8399 14.55428198883004"
  },
  {
    "CCSDS_OMM_VERS": "3.0",
    "COMMENT": "GENERATED VIA SPACE-TRACK.ORG API",
    "CREATION_DATE": "2011-11-16T09:08:46",
    "ORIGINATOR": "18 SPCS",
    "OBJECT_NAME": "IRIDIUM 33 DEB",
    "OBJECT_ID": "1997-051R",
    "CENTER_NAME": "EARTH",
    "REF_FRAME": "TEME",
    "TIME_SYSTEM": "UTC",
    "MEAN_ELEMENT_THEORY": "SGP4",
    "EPOCH": "2011-11-13T05:24:00.416447",
    "MEAN_MOTION": "15.50576691",
    "ECCENTRICITY": "0.00317300",
    "INCLINATION": "86.1301",
    "RA_OF_ASC_NODE": "36.1808",
    "ARG_OF_PERICENTER": "338.8287",
    "MEAN_ANOMALY": "20.9049",
    "EPHEMERIS_TYPE": "0",
    "CLASSIFICATION_TYPE": "U",
    "NORAD_CAT_ID": "33778",
    "ELEMENT_SET_NO": "999",
    "REV_AT_EPOCH": "14466",
    "BSTAR": "0.19617000000000",
    "MEAN_MOTION_DOT": "0.13972127",
    "MEAN_MOTION_DDOT": "0.0000000000000",
    "SEMIMAJOR_AXIS": "6793.182",
    "PERIOD": "92.868",
    "APOAPSIS": "436.602",
    "PERIAPSIS": "393.492",
    "OBJECT_TYPE": "DEBRIS",
    "RCS_SIZE": "SMALL",
    "COUNTRY_CODE": "US",
    "LAUNCH_DATE": "1997-09-14",
    "SITE": "TTMTR",
    "DECAY_DATE": "2011-11-14",
    "FILE": "1189149",
    "GP_ID": "85916976",
    "TLE_LINE0": "0 IRIDIUM 33 DEB",
    "TLE_LINE1": "1 33778U 97051R   11317.22500482  .13972127  00000-0  19617+0 0  9991",
    "TLE_LINE2": "2 33778 086.1301 036.1808 0031730 338.8287 020.9049 15.50576691144668"
  },
  {
    "CCSDS_OMM_VERS": "3.0",
    "COMMENT": "GENERATED VIA SPACE-TRACK.ORG API",
    "CREATION_DATE": "2023-06-19T18:47:49",
    "ORIGINATOR": "18 SPCS",
    "OBJECT_NAME": "IRIDIUM 33 DEB",
    "OBJECT_ID": "1997-051S",
    "CENTER_NAME": "EARTH",
    "REF_FRAME": "TEME",
    "TIME_SYSTEM": "UTC",
    "MEAN_ELEMENT_THEORY": "SGP4",
    "EPOCH": "2023-06-18T17:14:41.379072",
    "MEAN_MOTION": "15.73503161",
    "ECCENTRICITY": "0.00370540",
    "INCLINATION": "86.0693",
    "RA_OF_ASC_NODE": "264.0164",
    "ARG_OF_PERICENTER": "282.0458",
    "MEAN_ANOMALY": "77.6661",
    "EPHEMERIS_TYPE": "0",
    "CLASSIFICATION_TYPE": "U",
    "NORAD_CAT_ID": "33849",
    "ELEMENT_SET_NO": "999",
    "REV_AT_EPOCH": "75244",
    "BSTAR": "0.02772400000000",
    "MEAN_MOTION_DOT": "0.04712545",
    "MEAN_MOTION_DDOT": "0.0000000000000",
    "SEMIMAJOR_AXIS": "6727.031",
    "PERIOD": "91.516",
    "APOAPSIS": "373.822",
    "PERIAPSIS": "323.970",
    "OBJECT_TYPE": "DEBRIS",
    "RCS_SIZE": "SMALL",
    "COUNTRY_CODE": "US",
    "LAUNCH_DATE": "1997-09-14",
    "SITE": "TTMTR",
    "DECAY_DATE": "2023-06-20",
    "FILE": "3937338",
    "GP_ID": "234276793",
    "TLE_LINE0": "0 IRIDIUM 33 DEB",
    "TLE_LINE1": "1 33849U 97051S   23169.71853448  .04712545  00000-0  27724-1 0  9991",
    "TLE_LINE2": "2 33849  86.0693 264.0164 0037054 282.0458  77.6661 15.73503161752449"
  },
  {
    "CCSDS_OMM_VERS": "3.0",
    "COMMENT": "GENERATED VIA SPACE-TRACK.ORG API",
    "CREATION_DATE": "2025-11-26T23:16:29",
    "ORIGINATOR": "18 SPCS",
    "OBJECT_NAME": "IRIDIUM 33 DEB",
    "OBJECT_ID": "1997-051T",
    "CENTER_NAME": "EARTH",
    "REF_FRAME": "TEME",
    "TIME_SYSTEM": "UTC",
    "MEAN_ELEMENT_THEORY": "SGP4",
    "EPOCH": "2025-11-26T16:43:23.527776",
    "MEAN_MOTION": "14.42088612",
    "ECCENTRICITY": "0.00105060",
    "INCLINATION": "86.3427",
    "RA_OF_ASC_NODE": "37.0761",
    "ARG_OF_PERICENTER": "212.9572",
    "MEAN_ANOMALY": "264.1942",
    "EPHEMERIS_TYPE": "0",
    "CLASSIFICATION_TYPE": "U",
    "NORAD_CAT_ID": "33850",
    "ELEMENT_SET_NO": "999",
    "REV_AT_EPOCH": "87921",
    "BSTAR": "0.00063637000000",
    "MEAN_MOTION_DOT": "0.00002111",
    "MEAN_MOTION_DDOT": "0.0000000000000",
    "SEMIMAJOR_AXIS": "7129.743",
    "PERIOD": "99.855",
    "APOAPSIS": "759.099",
    "PERIAPSIS": "744.118",
    "OBJECT_TYPE": "DEBRIS",
    "RCS_SIZE": "MEDIUM",
    "COUNTRY_CODE": "US",
    "LAUNCH_DATE": "1997-09-14",
    "SITE": "TTMTR",
    "DECAY_DATE": null,
    "FILE": "4903481",
    "GP_ID": "303674009",
    "TLE_LINE0": "0 IRIDIUM 33 DEB",
    "TLE_LINE1": "1 33850U 97051T   25330.69680009  .00002111  00000-0  63637-3 0  9995",
    "TLE_LINE2": "2 33850  86.3427  37.0761 0010506 212.9572 264.1942 14.42088612879216"
  },
  {
    "CCSDS_OMM_VERS": "3.0",
    "COMMENT": "GENERATED VIA SPACE-TRACK.ORG API",
    "CREATION_DATE": "2014-04-17T06:27:03",
    "ORIGINATOR": "18 SPCS",
    "OBJECT_NAME": "IRIDIUM 33 DEB",
    "OBJECT_ID": "1997-051U",
    "CENTER_NAME": "EARTH",
    "REF_FRAME": "TEME",
    "TIME_SYSTEM": "UTC",
    "MEAN_ELEMENT_THEORY": "SGP4",
    "EPOCH": "2014-04-16T23:41:53.334240",
    "MEAN_MOTION": "16.19617955",
    "ECCENTRICITY": "0.00190460",
    "INCLINATION": "86.3291",
    "RA_OF_ASC_NODE": "14.1489",
    "ARG_OF_PERICENTER": "208.1110",
    "MEAN_ANOMALY": "276.0065",
    "EPHEMERIS_TYPE": "0",
    "CLASSIFICATION_TYPE": "U",
    "NORAD_CAT_ID": "33851",
    "ELEMENT_SET_NO": "999",
    "REV_AT_EPOCH": "27609",
    "BSTAR": "0.02960600000000",
    "MEAN_MOTION_DOT": "0.55823125",
    "MEAN_MOTION_DDOT": "-0.0000016880000",
    "SEMIMAJOR_AXIS": "6598.730",
    "PERIOD": "88.909",
    "APOAPSIS": "233.163",
    "PERIAPSIS": "208.027",
    "OBJECT_TYPE": "DEBRIS",
    "RCS_SIZE": "SMALL",
    "COUNTRY_CODE": "US",
    "LAUNCH_DATE": "1997-09-14",
    "SITE": "TTMTR",
    "DECAY_DATE": "2014-04-16",
    "FILE": "1667302",
    "GP_ID": "95699158",
    "TLE_LINE0": "0 IRIDIUM 33 DEB",
    "TLE_LINE1": "1 33851U 97051U   14106.98742285  .55823125 -16880-5  29606-1 0  9993",
    "TLE_LINE2": "2 33851 086.3291 014.1489 0019046 208.1110 276.0065 16.19617955276091"
  },
  {
    "CCSDS_OMM_VERS": "3.0",
    "COMMENT": "GENERATED VIA SPACE-TRACK.ORG API",
    "CREATION_DATE": "2011-11-14T07:21:28",
    "ORIGINATOR": "18 SPCS",
    "OBJECT_NAME": "IRIDIUM 33 DEB",
    "OBJECT_ID": "1997-051V",
    "CENTER_NAME": "EARTH",
    "REF_FRAME": "TEME",
    "TIME_SYSTEM": "UTC",
    "MEAN_ELEMENT_THEORY": "SGP4",
    "EPOCH": "2011-11-14T11:03:34.806527",
    "MEAN_MOTION": "15.50015688",
    "ECCENTRICITY": "0.00218430",
    "INCLINATION": "86.1585",
    "RA_OF_ASC_NODE": "22.3868",
    "ARG_OF_PERICENTER": "324.0198",
    "MEAN_ANOMALY": "35.9790",
    "EPHEMERIS_TYPE": "0",
    "CLASSIFICATION_TYPE": "U",
    "NORAD_CAT_ID": "33852",
    "ELEMENT_SET_NO": "999",
    "REV_AT_EPOCH": "14578",
    "BSTAR": "0.11715000000000",
    "MEAN_MOTION_DOT": "0.08025487",
    "MEAN_MOTION_DDOT": "0.0000000000000",
    "SEMIMAJOR_AXIS": "6794.821",
    "PERIOD": "92.902",
    "APOAPSIS": "431.528",
    "PERIAPSIS": "401.844",
    "OBJECT_TYPE": "DEBRIS",
    "RCS_SIZE": "SMALL",
    "COUNTRY_CODE": "US",
    "LAUNCH_DATE": "1997-09-14",
    "SITE": "TTMTR",
    "DECAY_DATE": "2011-11-16",
    "FILE": "1187785",
    "GP_ID": "85876707",
    "TLE_LINE0": "0 IRIDIUM 33 DEB",
    "TLE_LINE1": "1 33852U 97051V   11318.46081952  .08025487  00000-0  11715+0 0  9990",
    "TLE_LINE2": "2 33852 086.1585 022.3868 0021843 324.0198 035.9790 15.50015688145787"
  },
  {
    "CCSDS_OMM_VERS": "3.0",
    "COMMENT": "GENERATED VIA SPACE-TRACK.ORG API",
    "CREATION_DATE": "2025-11-26T23:16:29",
    "ORIGINATOR": "18 SPCS",
    "OBJECT_NAME": "IRIDIUM 33 DEB",
    "OBJECT_ID": "1997-051W",
    "CENTER_NAME": "EARTH",
    "REF_FRAME": "TEME",
    "TIME_SYSTEM": "UTC",
    "MEAN_ELEMENT_THEORY": "SGP4",
    "EPOCH": "2025-11-26T13:34:19.975872",
    "MEAN_MOTION": "13.98901508",
    "ECCENTRICITY": "0.02070350",
    "INCLINATION": "86.0003",
    "RA_OF_ASC_NODE": "356.9028",
    "ARG_OF_PERICENTER": "285.7982",
    "MEAN_ANOMALY": "241.2709",
    "EPHEMERIS_TYPE": "0",
    "CLASSIFICATION_TYPE": "U",
    "NORAD_CAT_ID": "33853",
    "ELEMENT_SET_NO": "999",
    "REV_AT_EPOCH": "85119",
    "BSTAR": "0.00238860000000",
    "MEAN_MOTION_DOT": "0.00004154",
    "MEAN_MOTION_DDOT": "0.0000000000000",
    "SEMIMAJOR_AXIS": "7275.739",
    "PERIOD": "102.938",
    "APOAPSIS": "1048.237",
    "PERIAPSIS": "746.970",
    "OBJECT_TYPE": "DEBRIS",
    "RCS_SIZE": "SMALL",
    "COUNTRY_CODE": "US",
    "LAUNCH_DATE": "1997-09-14",
    "SITE": "TTMTR",
    "DECAY_DATE": null,
    "FILE": "4903481",
    "GP_ID": "303674509",
    "TLE_LINE0": "0 IRIDIUM 33 DEB",
    "TLE_LINE1": "1 33853U 97051W   25330.56550898  .00004154  00000-0  23886-2 0  9996",
    "TLE_LINE2": "2 33853  86.0003 356.9028 0207035 285.7982 241.2709 13.98901508851195"
  }
]